OBJECT_NAME,OBJECT_ID,EPOCH,MEAN_MOTION,ECCENTRICITY,INCLINATION,RA_OF_ASC_NODE,ARG_OF_PERICENTER,MEAN_ANOMALY,EPHEMERIS_TYPE,CLASSIFICATION_TYPE,NORAD_CAT_ID,ELEMENT_SET_NO,REV_AT_EPOCH,BSTAR,MEAN_MOTION_DOT,MEAN_MOTION_DDOT
TOMORROW-S2,2024-149T,2026-07-08T18:34:18.962112,15.33077157,.00032943,97.3813,270.6915,165.0151,195.1189,0,U,60485,999,10539,.17492718E-3,.5511E-4,0
FLOCK 4BE-36,2024-149U,2026-07-08T18:38:48.136128,15.43394438,.00042911,97.3738,274.4730,170.3083,189.8249,0,U,60486,999,10568,.27967151E-3,.12409E-3,0
FLOCK 4BE-25,2024-149V,2026-07-09T04:37:33.544704,15.39431125,.00032946,97.3792,273.5000,156.2094,203.9304,0,U,60487,999,10562,.277744E-3,.10797E-3,0
FLOCK 4BE-31,2024-149W,2026-07-09T01:06:53.876160,15.44977948,.00033799,97.3793,275.6689,166.3128,193.8213,0,U,60488,999,10575,.32502679E-3,.15235E-3,0
FLOCK 4BE-20,2024-149X,2026-07-09T04:00:30.104640,15.38700104,.00044899,97.3689,272.2977,169.4129,190.7212,0,U,60489,999,10559,.29163916E-3,.11075E-3,0
FLOCK 4BE-23,2024-149Y,2026-07-09T00:47:36.042720,15.38255639,.00040844,97.3776,272.5504,173.1683,186.9618,0,U,60490,999,10555,.27962152E-3,.10461E-3,0
FLOCK 4BE-17,2024-149AA,2026-07-08T17:26:48.530976,15.40434288,.00039315,97.3765,273.2745,162.8357,197.3023,0,U,60492,999,10557,.28106945E-3,.11296E-3,0
NUSAT-50 (NANCY ROMAN),2024-149AB,2026-07-08T18:00:34.296480,15.30243083,.00047644,97.3781,270.8602,117.1706,243.0021,0,U,60493,999,10542,.22008917E-3,.6365E-4,0
FLOCK 4BE-22,2024-149AC,2026-07-09T04:59:50.704800,15.41857225,.00042762,97.3733,273.9865,171.8142,188.3176,0,U,60494,999,10569,.29658425E-3,.12504E-3,0
FLOCK 4BE-34,2024-149AD,2026-07-08T18:30:44.832672,15.41812306,.00041837,97.3774,274.3812,179.9988,180.1260,0,U,60495,999,10565,.28512917E-3,.11999E-3,0
TYCHE,2024-149AE,2026-07-08T23:20:25.338336,15.25796270,.00023267,97.3753,267.4973,187.4996,172.6208,0,U,60496,999,10522,.12138935E-3,.303E-4,0
FLOCK 4BE-32,2024-149AF,2026-07-08T18:57:44.417088,15.42925610,.00043833,97.3712,273.9609,177.0530,183.0744,0,U,60497,999,10566,.31189442E-3,.13635E-3,0
NUSAT-48 (HENRIETTA LEAVITT),2024-149AG,2026-07-08T16:10:19.565184,15.30200838,.00041899,97.3911,271.0648,178.7267,181.3985,0,U,60498,999,10542,.20660899E-3,.5961E-4,0
NUSAT-49 (KLARA DAN VON NEUMANN),2024-149AJ,2026-07-08T18:45:10.426752,15.30310950,.00018193,97.3775,270.9235,182.0121,178.1113,0,U,60500,999,10543,.21663565E-3,.6275E-4,0
FLOCK 4BE-11,2024-149AK,2026-07-08T18:33:41.506848,15.43716945,.0004455,97.3692,274.1945,177.0967,183.0308,0,U,60501,999,10568,.30993334E-3,.13915E-3,0
YAM-7,2024-149AN,2026-07-08T19:23:45.390336,15.32122293,.00030232,97.3775,269.9731,189.0123,171.1065,0,U,60504,999,10536,.15150697E-3,.462E-4,0
FLOCK 4BE-24,2024-149AP,2026-07-08T18:11:28.727232,15.43919955,.00044566,97.3708,274.4441,189.5700,170.5464,0,U,60505,999,10569,.34742206E-3,.1572E-3,0
LUR-1,2024-149AQ,2026-07-08T18:10:39.293472,15.30392812,.00033331,97.3731,268.4322,206.3339,153.7733,0,U,60506,999,10527,.17166155E-3,.4969E-4,0
TANAGER-1,2024-149AR,2026-07-09T16:54:52.662816,15.43935842,.0002763,97.2281,284.8679,147.2432,212.8988,0,U,60507,999,10651,.72329E-5,.245E-5,0
EAGLEEYE,2024-149AS,2026-07-08T19:10:13.123200,15.75536199,.0004993,97.3703,284.3989,195.9799,164.1310,0,U,60508,999,10633,.66755589E-3,.102225E-2,0
FLOCK 4BE-29,2024-149AT,2026-07-08T19:39:20.292768,15.45081386,.00030063,97.3804,276.0285,192.2560,167.8616,0,U,60509,999,10575,.67382468E-3,.31858E-3,0
TRANSPORTER-11 OBJECT AU,2024-149AU,2026-07-09T15:53:38.757696,15.40866247,.0003726,97.3723,274.5712,185.9119,174.2084,0,U,60510,999,10577,.26803E-3,.10923E-3,0
FLOCK 4BE-2,2024-149AV,2026-07-09T15:52:13.296000,15.55382059,.0005091,97.3824,278.6387,188.0676,172.0497,0,U,60511,999,10599,.75479E-3,.51489E-3,0
FLOCK 4BE-13,2024-149AW,2026-07-08T18:18:34.857216,15.42489198,.00045962,97.3713,274.4064,175.1537,184.9756,0,U,60512,999,10569,.247636E-3,.10647E-3,0
FLOCK 4BE-27,2024-149AX,2026-07-09T18:07:15.322944,15.34852169,.0003419,97.3821,272.6217,200.8149,159.2956,0,U,60513,999,10560,.20523E-3,.6856E-4,0
FLOCK 4BE-9,2024-149AY,2026-07-09T00:52:37.051680,15.41465848,.00030915,97.3785,274.5287,188.6470,171.4725,0,U,60514,999,10568,.27016402E-3,.11231E-3,0
FLOCK 4BE-6,2024-149BA,2026-07-08T18:11:39.342336,15.40192015,.00036895,97.3783,273.5644,193.1062,167.0089,0,U,60516,999,10559,.27191308E-3,.10837E-3,0
FLOCK 4BE-14,2024-149BB,2026-07-09T04:13:02.163072,15.41719707,.00046542,97.3690,274.1426,196.4822,163.6274,0,U,60517,999,10571,.33129703E-3,.13917E-3,0
